     2.100          NAVIGATION                              RINEX VERSION / TYPE
fic2rin                                 04/05/2014 00:23:39 PGM / RUN BY / DATE
                                                            END OF HEADER
12 14  4  4 14  0  0.0  .196467153728D-03  .238742359215D-11  .000000000000D+00
     .680000000000D+02 -.828125000000D+02  .377515725045D-08 -.793625234317D+00
    -.436604022980D-05  .504937756341D-02  .780075788498D-05  .515365284538D+04
     .482400000000D+06  .203028321266D-06 -.275573852609D+01  .931322574615D-08
     .987382833967D+00  .243937500000D+03  .379819160330D+00 -.779853912617D-08
    -.196079596074D-09  .100000000000D+01  .178600000000D+04  .000000000000D+00
     .240000000000D+01  .000000000000D+00 -.121071934700D-07  .680000000000D+02
     .475206000000D+06  .400000000000D+01
13 14  4  4 14  0  0.0  .132159329951D-04 -.386535248253D-11  .000000000000D+00
     .480000000000D+02  .956875000000D+02  .415553023737D-08  .195046450374D+01
     .499747693539D-05  .535429781303D-02  .688806176186D-05  .515361469269D+04
     .482400000000D+06  .782310962677D-07  .150044944447D+01 -.298023223877D-07
     .977884124433D+00  .250062500000D+03  .221794303656D+01 -.791104381244D-08
    -.117862052285D-10  .100000000000D+01  .178600000000D+04  .000000000000D+00
     .240000000000D+01  .000000000000D+00 -.111758708954D-07  .480000000000D+02
     .475206000000D+06  .400000000000D+01
14 14  4  4 14  0  0.0  .184599775821D-03 -.329691829393D-11  .000000000000D+00
     .730000000000D+02  .828437500000D+02  .428482133715D-08  .228307801429D+01
     .416859984398D-05  .732904498000D-02  .767409801483D-05  .515364303970D+04
     .482400000000D+06  .186264514923D-07  .146894842508D+01 -.156462192535D-06
     .970477182944D+00  .234218750000D+03 -.199869929444D+01 -.787139930395D-08
     .371444043564D-10  .100000000000D+01  .178600000000D+04  .000000000000D+00
     .240000000000D+01  .000000000000D+00 -.884756445885D-08  .730000000000D+02
     .475206000000D+06  .400000000000D+01
15 14  4  4 14  0  0.0 -.172013416886D-03 -.216004991671D-11  .000000000000D+00
     .860000000000D+02  .879062500000D+02  .509556939378D-08  .168227729829D+01
     .481680035591D-05  .623513280880D-02  .875443220139D-05  .515367579651D+04
     .482400000000D+06 -.186264514923D-07  .135863591991D+01  .143423676491D-06
     .937123658688D+00  .198218750000D+03  .272621367203D+00 -.838534928346D-08
    -.460733477113D-10  .100000000000D+01  .178600000000D+04  .000000000000D+00
     .240000000000D+01  .000000000000D+00 -.102445483208D-07  .860000000000D+02
     .475206000000D+06  .400000000000D+01
16 14  4  4 14  0  0.0 -.224755145609D-03  .170530256582D-11  .000000000000D+00
     .650000000000D+02 -.728437500000D+02  .363765152279D-08 -.297007705707D+01
    -.379793345928D-05  .770546821877D-02  .854581594467D-05  .515357036209D+04
     .482400000000D+06 -.800937414169D-07 -.273721841915D+01 -.223517417908D-07
     .987992282713D+00  .230437500000D+03  .171067531044D+00 -.762281752095D-08
    -.746459664470D-10  .100000000000D+01  .178600000000D+04  .000000000000D+00
     .240000000000D+01  .000000000000D+00 -.977888703346D-08  .650000000000D+02
     .475206000000D+06  .400000000000D+01
17 14  4  4 14  0  0.0 -.821892172098D-04 -.318323145621D-11  .000000000000D+00
     .840000000000D+02 -.143750000000D+02  .418338854064D-08  .234215179472D+01
    -.670552253723D-06  .926869676914D-02  .959262251854D-05  .515357016182D+04
     .482400000000D+06  .149011611938D-07 -.170471715670D+01 -.156462192535D-06
     .967872512895D+00  .195656250000D+03 -.210684915027D+01 -.773246494535D-08
     .532522181686D-09  .100000000000D+01  .178600000000D+04  .000000000000D+00
     .240000000000D+01  .000000000000D+00 -.102445483208D-07  .840000000000D+02
     .475206000000D+06  .400000000000D+01
18 14  4  4 14  0  0.0  .311212148517D-03  .227373675443D-11  .000000000000D+00
     .670000000000D+02 -.743750000000D+01  .533057918288D-08 -.230492782079D+01
    -.448897480965D-06  .150092479307D-01  .890716910362D-05  .515368258858D+04
     .482400000000D+06  .208616256714D-06  .339524660325D+00 -.186264514923D-07
     .926443192226D+00  .184843750000D+03 -.205137902422D+01 -.814462497061D-08
    -.163578242262D-09  .100000000000D+01  .178600000000D+04  .000000000000D+00
     .240000000000D+01  .000000000000D+00 -.107102096081D-07  .670000000000D+02
     .475206000000D+06  .400000000000D+01
19 14  4  4 14  0  0.0 -.448975712061D-03 -.238742359215D-11  .000000000000D+00
     .970000000000D+02  .321875000000D+01  .440946938638D-08  .158151426737D+01
     .173225998878D-06  .101388655603D-01  .878982245922D-05  .515359741974D+04
     .482400000000D+06 -.104308128357D-06 -.165371341756D+01  .968575477600D-07
     .964988385994D+00  .212781250000D+03  .410953418842D+00 -.802569144512D-08
     .336442585613D-09  .100000000000D+01  .178600000000D+04  .000000000000D+00
     .240000000000D+01  .000000000000D+00 -.149011611938D-07  .970000000000D+02
     .475206000000D+06  .400000000000D+01
20 14  4  4 14  0  0.0  .176425557584D-03  .363797880709D-11  .000000000000D+00
     .270000000000D+02  .156250000000D+01  .539201031316D-08 -.175440309485D+01
     .165775418282D-06  .586353486869D-02  .926479697227D-05  .515354281616D+04
     .482400000000D+06  .104308128357D-06  .286412689461D+00  .100582838058D-06
     .927419349184D+00  .183968750000D+03  .131648392210D+01 -.828427364468D-08
    -.265368196508D-09  .100000000000D+01  .178600000000D+04  .000000000000D+00
     .240000000000D+01  .000000000000D+00 -.791624188423D-08  .270000000000D+02
     .475206000000D+06  .400000000000D+01
21 14  4  4 14  0  0.0 -.353361479938D-03 -.227373675443D-11  .000000000000D+00
     .120000000000D+02 -.937500000000D-01  .546879922601D-08 -.130951238306D+01
     .463798642159D-06  .213532284833D-01  .531971454620D-05  .515377060699D+04
     .482400000000D+06  .374391674995D-06 -.705669267055D+00  .363215804100D-06
     .932209583734D+00  .255750000000D+03 -.204273894226D+01 -.847856745208D-08
     .178221709364D-09  .100000000000D+01  .178600000000D+04  .000000000000D+00
     .240000000000D+01  .000000000000D+00 -.111758708954D-07  .120000000000D+02
     .475206000000D+06  .400000000000D+01
22 14  4  4 14  0  0.0  .224387738854D-03  .272848410532D-11  .000000000000D+00
     .500000000000D+02 -.775000000000D+01  .541808282775D-08 -.285490874789D+01
    -.528991222382D-06  .699927809183D-02  .943802297115D-05  .515373005295D+04
     .482400000000D+06  .111758708954D-06  .341510302441D+00 -.104308128357D-06
     .924212913635D+00  .177500000000D+03 -.206626808948D+01 -.829641700764D-08
    -.270725562521D-09  .100000000000D+01  .178600000000D+04  .000000000000D+00
     .240000000000D+01  .000000000000D+00 -.172294676304D-07  .500000000000D+02
     .475206000000D+06  .400000000000D+01
24 14  4  4 14  0  0.0 -.261147506535D-04 -.682121026330D-12  .000000000000D+00
     .560000000000D+02  .143437500000D+02  .485448792319D-08  .484123697947D+00
     .754371285439D-06  .202388863545D-02  .269711017609D-05  .515374157333D+04
     .482400000000D+06 -.260770320892D-07  .243183936545D+01  .000000000000D+00
     .957083443784D+00  .320468750000D+03  .304066789854D+00 -.851142596363D-08
    -.153577825704D-09  .100000000000D+01  .178600000000D+04  .000000000000D+00
     .340000000000D+01  .000000000000D+00  .325962901115D-08  .560000000000D+02
     .475206000000D+06  .400000000000D+01
25 14  4  4 14  0  0.0  .207950361073D-04  .113686837722D-11  .000000000000D+00
     .990000000000D+02 -.791562500000D+02  .394516433193D-08 -.157416081016D+01
    -.409781932831D-05  .343114079442D-02  .750832259655D-05  .515363286972D+04
     .482400000000D+06  .987201929092D-07 -.279753515623D+01 -.156462192535D-06
     .976118497882D+00  .244406250000D+03  .628588000813D+00 -.780211070351D-08
    -.177507393895D-09  .100000000000D+01  .178600000000D+04  .000000000000D+00
     .240000000000D+01  .000000000000D+00  .558793544769D-08  .990000000000D+02
     .475206000000D+06  .400000000000D+01
26 14  4  4 14  0  0.0  .118729192764D-03 -.112549969344D-10  .000000000000D+00
     .470000000000D+02  .912812500000D+02  .437125350883D-08  .115217376327D+01
     .462308526039D-05  .214835180668D-01  .846199691296D-05  .515369226646D+04
     .482400000000D+06 -.419095158577D-06  .149189298877D+01 -.633299350739D-07
     .975284203016D+00  .229937500000D+03  .127512778098D+01 -.827748764773D-08
    -.821462788651D-11  .100000000000D+01  .178600000000D+04  .000000000000D+00
     .240000000000D+01  .000000000000D+00 -.605359673500D-08  .470000000000D+02
     .475206000000D+06  .400000000000D+01
27 14  4  4 14  0  0.0 -.202450901270D-04  .454747350886D-12  .000000000000D+00
     .640000000000D+02 -.237500000000D+01  .438661129140D-08  .251726076862D+01
    -.106170773506D-06  .105302361771D-02  .880099833012D-05  .515367424011D+04
     .482400000000D+06 -.372529029846D-08 -.174994237820D+01 -.149011611938D-07
     .962609085789D+00  .208375000000D+03  .541111073391D-01 -.797711799327D-08
     .441089801732D-09  .100000000000D+01  .178600000000D+04  .000000000000D+00
     .240000000000D+01  .000000000000D+00  .186264514923D-08  .640000000000D+02
     .475206000000D+06  .400000000000D+01
28 14  4  4 14  0  0.0  .344749074429D-03  .295585778076D-11  .000000000000D+00
     .300000000000D+02 -.879687500000D+02  .353907598815D-08 -.307275651068D+01
    -.446848571301D-05  .191615412477D-01  .878795981407D-05  .515367363739D+04
     .482400000000D+06  .217929482460D-06 -.273138162325D+01 -.298023223877D-07
     .986504322402D+00  .219437500000D+03 -.171704826143D+01 -.736030658631D-08
    -.113933317209D-09  .100000000000D+01  .178600000000D+04  .000000000000D+00
     .240000000000D+01  .000000000000D+00 -.107102096081D-07  .300000000000D+02
     .475206000000D+06  .400000000000D+01
